COMMENT,ORIGINATOR,NORAD_CAT_ID,OBJECT_NAME,OBJECT_TYPE,CLASSIFICATION_TYPE,INTLDES,EPOCH,EPOCH_MICROSECONDS,MEAN_MOTION,ECCENTRICITY,INCLINATION,RA_OF_ASC_NODE,ARG_OF_PERICENTER,MEAN_ANOMALY,EPHEMERIS_TYPE,ELEMENT_SET_NO,REV_AT_EPOCH,BSTAR,MEAN_MOTION_DOT,MEAN_MOTION_DDOT,FILE,TLE_LINE0,TLE_LINE1,TLE_LINE2,OBJECT_ID,OBJECT_NUMBER,SEMIMAJOR_AXIS,PERIOD,APOGEE,PERIGEE
"GENERATED VIA SPACETRACK.ORG API","JSPOC","33055","SKYNET 5C","PAYLOAD","U","08030A","2016-01-13 19:14:56","743296","1.0027125","0.0003735","0.0607","8.837","268.1432","106.626","0","999","2780","0","-1.43e-06","0","1980270","0 SKYNET 5C","1 33055U 08030A   16013.80204564 -.00000143 +00000-0 +00000-0 0  9996","2 33055 000.0607 008.8370 0003735 268.1432 106.6260 01.00271250027807","2008-030A","33055","42164.881","1436.104","35802.495","35770.998"
"GENERATED VIA SPACETRACK.ORG API","JSPOC","40017","TABLETSAT AURORA","PAYLOAD","U","14033H","2016-01-13 19:15:17","148384","14.91991763","0.0022608","97.9532","283.7207","246.8548","113.0279","0","999","8536","0.00012243","1.187e-05","0","1979941","0 TABLETSAT AURORA","1 40017U 14033H   16013.80228181  .00001187  00000-0  12243-3 0  9996","2 40017  97.9532 283.7207 0022608 246.8548 113.0279 14.91991763 85368","2014-033H","40017","6969.862","96.515","607.485","575.970"
"GENERATED VIA SPACETRACK.ORG API","JSPOC","21789","COSMOS 2172","PAYLOAD","U","91079A","2016-01-13 19:15:23","874624","1.00265359","0.0006264","14.8723","14.4771","253.8644","121.3731","0","999","918","0","-1.21e-06","0","1980270","0 COSMOS 2172","1 21789U 91079A   16013.80235966 -.00000121 +00000-0 +00000-0 0  9998","2 21789 014.8723 014.4771 0006264 253.8644 121.3731 01.00265359009185","1991-079A","21789","42166.533","1436.188","35814.811","35761.985"
"GENERATED VIA SPACETRACK.ORG API","JSPOC","23322","SL-12 R/B(2)","ROCKET BODY","U","94067D","2016-01-13 19:15:23","874624","1.00262531","0.000406","14.7092","19.1671","52.7949","318.372","0","999","7783","0","-1.17e-06","0","1980270","0 SL-12 R/B(2)","1 23322U 94067D   16013.80235966 -.00000117 +00000-0 +00000-0 0  9998","2 23322 014.7092 019.1671 0004060 052.7949 318.3720 01.00262531077837","1994-067D","23322","42167.326","1436.229","35806.311","35772.071"
"GENERATED VIA SPACETRACK.ORG API","JSPOC","23270","SL-12 R/B(2)","ROCKET BODY","U","94060D","2016-01-13 19:15:37","405728","1.00090158","0.0005531","14.2526","23.8204","54.2375","308.3534","0","999","7745","0","-1.72e-06","0","1980270","0 SL-12 R/B(2)","1 23270U 94060D   16013.80251627 -.00000172 +00000-0 +00000-0 0  9996","2 23270 014.2526 023.8204 0005531 054.2375 308.3534 01.00090158077458","1994-060D","23270","42215.725","1438.702","35860.940","35814.241"
"GENERATED VIA SPACETRACK.ORG API","JSPOC","25949","TELSTAR 12 (ORION 2)","PAYLOAD","U","99059A","2016-01-13 19:15:37","405728","1.00271092","0.00024","0.0249","317.1143","0.0814","69.4049","0","999","5935","0","-1.23e-06","0","1980270","0 TELSTAR 12 (ORION 2)","1 25949U 99059A   16013.80251627 -.00000123 +00000-0 +00000-0 0  9990","2 25949 000.0249 317.1143 0002400 000.0814 069.4049 01.00271092059351","1999-059A","25949","42164.926","1436.106","35796.910","35776.671"
"GENERATED VIA SPACETRACK.ORG API","JSPOC","9481","METEOR 1-26","PAYLOAD","U","76102A","2016-01-13 19:15:52","212096","14.09713183","0.0023089","81.218","160.4416","227.8991","132.0217","0","999","1739","8.6777e-05","1.65e-06","0","1979951","0 METEOR 1-26","1 09481U 76102A   16013.80268764  .00000165  00000-0  86777-4 0  9991","2 09481  81.2180 160.4416 0023089 227.8991 132.0217 14.09713183 17399","1976-102A","9481","7238.490","102.148","877.068","843.642"
"GENERATED VIA SPACETRACK.ORG API","JSPOC","40720","PSLV R/B","ROCKET BODY","U","15032F","2016-01-13 19:15:54","237312","14.79530359","0.000542","98.0939","269.5122","159.8451","200.2975","0","999","2766","6.0667e-05","4e-06","0","1979968","0 PSLV R/B","1 40720U 15032F   16013.80271108  .00000400  00000-0  60667-4 0  9995","2 40720  98.0939 269.5122 0005420 159.8451 200.2975 14.79530359 27666","2015-032F","40720","7008.943","97.328","634.607","627.010"
"GENERATED VIA SPACETRACK.ORG API","JSPOC","27421","SPOT 5","PAYLOAD","U","02021A","2016-01-13 19:15:55","61568","14.51746706","0.0136443","98.4811","68.3819","119.7423","241.7418","0","999","71016","5.3042e-05","1.88e-06","0","1979927","0 SPOT 5","1 27421U 02021A   16013.80272062  .00000188  00000-0  53042-4 0  9994","2 27421  98.4811  68.3819 0136443 119.7423 241.7418 14.51746706710165","2002-021A","27421","7098.086","99.190","816.799","623.102"
"GENERATED VIA SPACETRACK.ORG API","JSPOC","40928","TIANWANG 1A (TW-1A)","PAYLOAD","U","15051D","2016-01-13 19:16:04","404864","15.31507002","0.0013193","97.2899","52.4451","261.5796","186.3934","0","999","1692","0.00021542","6.494e-05","0","1979950","0 TIANWANG 1A (TW-1A)","1 40928U 15051D   16013.80282876  .00006494  00000-0  21542-3 0  9997","2 40928  97.2899  52.4451 0013193 261.5796 186.3934 15.31507002 16929","2015-051D","40928","6849.452","94.025","480.353","462.280"
"GENERATED VIA SPACETRACK.ORG API","JSPOC","30777","CFESAT","PAYLOAD","U","07006F","2016-01-13 19:16:04","6560","15.2655745","0.0003812","35.4269","135.7353","344.7116","15.3492","0","999","48830","0.00030374","8.097e-05","0","1980270","0 CFESAT","1 30777U 07006F   16013.80282415 +.00008097 +00000-0 +30374-3 0  9992","2 30777 035.4269 135.7353 0003812 344.7116 015.3492 15.26557450488309","2007-006F","30777","6864.249","94.329","488.731","483.498"
"GENERATED VIA SPACETRACK.ORG API","JSPOC","24948","IRIDIUM 28","PAYLOAD","U","97051E","2016-01-13 19:16:05","35584","14.35436713","0.0002047","86.3997","144.0923","104.3597","58.5494","0","999","95992","4.9398e-05","1.62e-06","0","1979881","0 IRIDIUM 28","1 24948U 97051E   16013.80283606  .00000162  00000-0  49398-4 0  9999","2 24948  86.3997 144.0923 0002047 104.3597  58.5494 14.35436713959922","1997-051E","24948","7151.752","100.317","775.081","772.153"
"GENERATED VIA SPACETRACK.ORG API","JSPOC","3892","THORAD AGENA D R/B","ROCKET BODY","U","69037C","2016-01-13 19:16:06","261600","13.4186978","0.00387","99.9879","288.3925","304.621","101.0873","0","999","28874","2.7303e-05","-3e-07","0","1979912","0 THORAD AGENA D R/B","1 03892U 69037C   16013.80285025 -.00000030  00000-0  27303-4 0  9991","2 03892  99.9879 288.3925 0038700 304.6210 101.0873 13.41869780288742","1969-037C","3892","7480.459","107.312","1131.273","1073.374"
"GENERATED VIA SPACETRACK.ORG API","JSPOC","39624","SJ-11-06","PAYLOAD","U","14014A","2016-01-13 19:16:20","270496","14.59748654","0.0012135","98.1718","71.3798","351.8211","8.278","0","999","9534","5.2271e-05","2.03e-06","0","1979870","0 SJ-11-06","1 39624U 14014A   16013.80301239  .00000203  00000-0  52271-4 0  9997","2 39624  98.1718  71.3798 0012135 351.8211   8.2780 14.59748654 95347","2014-014A","39624","7072.122","98.647","702.569","685.405"
"GENERATED VIA SPACETRACK.ORG API","JSPOC","15331","COSMOS 1602","PAYLOAD","U","84105A","2016-01-13 19:16:23","398176","15.11710649","0.0014005","82.5405","111.4765","285.42","74.5483","0","999","70293","0.0001703","2.935e-05","0","1980270","0 COSMOS 1602","1 15331U 84105A   16013.80304859 +.00002935 +00000-0 +17030-3 0  9992","2 15331 082.5405 111.4765 0014005 285.4200 074.5483 15.11710649702932","1984-105A","15331","6909.119","95.256","540.661","521.308"
"GENERATED VIA SPACETRACK.ORG API","JSPOC","6909","NNSS 20 (TRANSIT 20)","PAYLOAD","U","73081A","2016-01-13 19:16:24","49632","13.70363881","0.0159096","89.8402","321.7455","122.8326","238.8269","0","999","30761","0.00015181","1.59e-06","0","1980270","0 NNSS 20 (TRANSIT 20)","1  6909U 73081A   16013.80305613 +.00000159 +00000-0 +15181-3 0  9994","2  6909 089.8402 321.7455 0159096 122.8326 238.8269 13.70363881307613","1973-081A","6909","7376.401","105.081","1115.622","880.911"
"GENERATED VIA SPACETRACK.ORG API","JSPOC","40958","LQSAT","PAYLOAD","U","15057A","2016-01-13 19:16:25","111488","14.72789126","0.0017124","98.0321","90.6348","293.5206","66.4196","0","999","1451","4.4904e-05","2.37e-06","0","1979900","0 LQSAT","1 40958U 15057A   16013.80306842  .00000237  00000-0  44904-4 0  9993","2 40958  98.0321  90.6348 0017124 293.5206  66.4196 14.72789126 14513","2015-057A","40958","7030.315","97.773","664.218","640.141"
"GENERATED VIA SPACETRACK.ORG API","JSPOC","22034","COSMOS 2197","PAYLOAD","U","92042A","2016-01-13 19:16:28","354944","12.64134888","0.0011041","82.5956","141.5539","295.0091","233.4168","0","999","8420","0.00013617","3.6e-07","0","1980270","0 COSMOS 2197","1 22034U 92042A   16013.80310596 +.00000036 +00000-0 +13617-3 0  9991","2 22034 082.5956 141.5539 0011041 295.0091 233.4168 12.64134888084205","1992-042A","22034","7784.060","113.911","1414.520","1397.331"
"GENERATED VIA SPACETRACK.ORG API","JSPOC","27386","ENVISAT","PAYLOAD","U","02009A","2016-01-13 19:16:36","800544","14.37850848","0.0001161","98.3069","72.6115","74.8319","285.2985","0","999","72629","2.3455e-05","2.9e-07","0","1980270","0 ENVISAT","1 27386U 02009A   16013.80320371 +.00000029 +00000-0 +23455-4 0  9996","2 27386 098.3069 072.6115 0001161 074.8319 285.2985 14.37850848726299","2002-009A","27386","7143.745","100.149","766.439","764.780"
"GENERATED VIA SPACETRACK.ORG API","JSPOC","31573","GLOBALSTAR M069","PAYLOAD","U","07020C","2016-01-13 19:16:44","662944","12.62266661","0.0002266","51.9929","223.0253","100.1935","32.7812","0","999","39974","-3.8532e-05","-1.11e-06","0","1979949","0 GLOBALSTAR M069","1 31573U 07020C   16013.80329471 -.00000111  00000-0 -38532-4 0  9993","2 31573  51.9929 223.0253 0002266 100.1935  32.7812 12.62266661399741","2007-020C","31573","7791.739","114.080","1415.370","1411.839"
